GSAT0210 (GALILEO 13)
1 41550U 16030B   25352.97267031  .00000065  00000+0  00000+0 0  9996
2 41550  55.1496 226.6499 0000791 227.6007 132.5002  1.70473668 59599